IRIDIUM 150             
1 43257U 18030J   25037.79166062  .00000608  00000+0  21020-3 0  9998
2 43257  86.4013 137.5849 0002271  94.1809 265.9646 14.34219629359157
IRIDIUM 143             
1 43258U 18030K   25038.81915851  .00000209  00000+0  67609-4 0  9992
2 43258  86.4016 137.2294 0002643  92.7151 267.4347 14.34219415359269
IRIDIUM 161             
1 43478U 18047C   25038.77078448  .00000055  00000+0  10358-4 0  9999
2 43478  86.4487 295.0778 0002021  85.7809 274.3623 14.43276961353826
IRIDIUM 152             
1 43479U 18047D   25038.79187665  .00000491  00000+0  16837-3 0  9995
2 43479  86.3960 294.9285 0002095  87.7658 272.3777 14.34217157351635
IRIDIUM 147             
1 43480U 18047E   25038.79822061  .00000510  00000+0  17502-3 0  9995
2 43480  86.3963 294.9223 0001837  81.7468 278.3936 14.34217392351621
IRIDIUM 110             
1 43481U 18047F   25038.80456149  .00000513  00000+0  17611-3 0  9992
2 43481  86.3964 294.9987 0001771  94.8209 265.3189 14.34220137351611
IRIDIUM 162             
1 43482U 18047G   25038.76450731  .00000699  00000+0  20193-3 0  9993
2 43482  86.4484 294.9772 0002161  91.4760 268.6688 14.43270705353811
IRIDIUM 160             
1 43569U 18061A   25037.70387189  .00000525  00000+0  18025-3 0  9993
2 43569  86.3929 263.8110 0001851  88.5578 271.5830 14.34218427342352
